NORAD_CAT_ID,OBJECT_NAME,OBJECT_TYPE,EPOCH,MEAN_MOTION,ECCENTRICITY,INCLINATION,RA_OF_ASC_NODE,ARG_OF_PERICENTER,MEAN_ANOMALY,BSTAR,MEAN_MOTION_DOT,MEAN_MOTION_DDOT,TLE_LINE0,TLE_LINE1,TLE_LINE2,SEMIMAJOR_AXIS,PERIOD,APOGEE,PERIGEE,DECAYED
49432.0,STARLINK-3158,PAYLOAD,2023-03-26 06:01:15,15.08866685,8.89e-05,53.2186,24.9104,116.4687,243.6397,0.0017098,0.00027048,0.0,0 STARLINK-3158,1 49432U 21104AA  23085.25087713  .00027048  00000-0  17098-2 0  9999,2 49432  53.2186  24.9104 0000889 116.4687 243.6397 15.08866685 75815,6917.799,95.436,540.279,539.049,0.0
49432.0,STARLINK-3158,PAYLOAD,2023-03-27 02:41:16,15.08849086,9.45e-05,53.2188,21.0471,115.2525,244.8565,0.001355,0.00021348,0.0,0 STARLINK-3158,1 49432U 21104AA  23086.11200102  .00021348  00000-0  13550-2 0  9990,2 49432  53.2188  21.0471 0000945 115.2525 244.8565 15.08849086 77024,6917.853,95.437,540.371,539.064,0.0
49432.0,STARLINK-3158,PAYLOAD,2023-03-28 05:42:49,15.08865918,9.26e-05,53.2172,15.9891,104.6703,255.4392,0.0015194,0.00023993,0.0,0 STARLINK-3158,1 49432U 21104AA  23087.23807592  .00023993  00000-0  15194-2 0  9994,2 49432  53.2172  15.9891 0000926 104.6703 255.4392 15.08865918 77190,6917.801,95.436,540.307,539.026,0.0
49432.0,STARLINK-3158,PAYLOAD,2023-03-28 23:12:04,15.0885312,0.0001021,53.2167,12.7184,112.6704,247.4396,0.00077276,0.00012036,0.0,0 STARLINK-3158,1 49432U 21104AA  23087.96671388  .00012036  00000-0  77276-3 0  9992,2 49432  53.2167  12.7184 0001021 112.6704 247.4396 15.08853120 77301,6917.84,95.437,540.412,538.999,0.0
49432.0,STARLINK-3158,PAYLOAD,2023-03-29 03:58:13,15.08864612,0.0001006,53.2165,11.8279,127.1417,232.9667,0.0011972,0.0001883,0.0,0 STARLINK-3158,1 49432U 21104AA  23088.16543096  .00018830  00000-0  11972-2 0  9997,2 49432  53.2165  11.8279 0001006 127.1417 232.9667 15.08864612 76250,6917.805,95.436,540.366,538.974,0.0
49432.0,STARLINK-3158,PAYLOAD,2023-03-29 21:27:28,15.08844325,0.0001115,53.2169,8.5552,112.8062,247.3048,0.0013861,0.00021843,0.0,0 STARLINK-3158,1 49432U 21104AA  23088.89407661  .00021843  00000-0  13861-2 0  9991,2 49432  53.2169   8.5552 0001115 112.8062 247.3048 15.08844325 77443,6917.867,95.437,540.504,538.961,0.0
49432.0,STARLINK-3158,PAYLOAD,2023-03-30 11:45:56,15.08840989,9.36e-05,53.218,5.8796,107.4958,252.6136,0.00032768,4.931e-05,0.0,0 STARLINK-3158,1 49432U 21104AA  23089.49023819  .00004931  00000-0  32768-3 0  9994,2 49432  53.2180   5.8796 0000936 107.4958 252.6136 15.08840989 77539,6917.877,95.437,540.39,539.095,0.0
49432.0,STARLINK-3158,PAYLOAD,2023-03-31 03:39:47,15.08859328,0.0001152,53.217,2.9059,109.0231,251.0886,0.0015174,0.00023957,0.0,0 STARLINK-3158,1 49432U 21104AA  23090.15263503  .00023957  00000-0  15174-2 0  9995,2 49432  53.2170   2.9059 0001152 109.0231 251.0886 15.08859328 77634,6917.821,95.436,540.483,538.889,0.0
49432.0,STARLINK-3158,PAYLOAD,2023-03-31 21:09:02,15.08840375,0.0001123,53.2176,359.6348,93.472,266.6401,0.00051512,7.92e-05,0.0,0 STARLINK-3158,1 49432U 21104AA  23090.88128200  .00007920  00000-0  51512-3 0  9998,2 49432  53.2176 359.6348 0001123  93.4720 266.6401 15.08840375 77749,6917.879,95.438,540.521,538.967,0.0
49432.0,STARLINK-3158,PAYLOAD,2023-04-01 03:30:35,15.08856503,0.0001287,53.2173,358.4444,75.0269,285.0866,0.00093676,0.00014659,0.0,0 STARLINK-3158,1 49432U 21104AA  23091.14624042  .00014659  00000-0  93676-3 0  9997,2 49432  53.2173 358.4444 0001287  75.0269 285.0866 15.08856503 77789,6917.83,95.437,540.585,538.805,0.0
49432.0,STARLINK-3158,PAYLOAD,2023-04-01 17:49:04,15.08832007,0.0001699,53.219,355.7692,65.2338,294.8831,0.0010863,0.00017039,0.0,0 STARLINK-3158,1 49432U 21104AA  23091.74241120  .00017039  00000-0  10863-2 0  9996,2 49432  53.2190 355.7692 0001699  65.2338 294.8831 15.08832007 77871,6917.905,95.438,540.945,538.594,0.0
49432.0,STARLINK-3158,PAYLOAD,2023-04-02 00:10:37,15.08835134,0.0001353,53.2181,354.5799,64.2228,295.8903,0.0012736,0.00020037,0.0,0 STARLINK-3158,1 49432U 21104AA  23092.00737334  .00020037  00000-0  12736-2 0  9996,2 49432  53.2181 354.5799 0001353  64.2228 295.8903 15.08835134 76830,6917.895,95.438,540.696,538.824,0.0
49432.0,STARLINK-3158,PAYLOAD,2023-04-02 20:50:37,15.08855176,0.0001352,53.2181,350.7151,70.3808,289.733,0.00083937,0.00013101,0.0,0 STARLINK-3158,1 49432U 21104AA  23092.86849091  .00013101  00000-0  83937-3 0  9990,2 49432  53.2181 350.7151 0001352  70.3808 289.7330 15.08855176 78040,6917.834,95.437,540.634,538.764,0.0
49432.0,STARLINK-3158,PAYLOAD,2023-04-02 22:26:00,15.08857899,0.0001418,53.218,350.4177,67.4928,292.6214,0.00089907,0.00014057,0.0,0 STARLINK-3158,1 49432U 21104AA  23092.93473005  .00014057  00000-0  89907-3 0  9990,2 49432  53.2180 350.4177 0001418  67.4928 292.6214 15.08857899 76975,6917.826,95.436,540.672,538.71,0.0
49432.0,STARLINK-3158,PAYLOAD,2023-04-03 00:01:23,15.08863931,0.000143,53.2184,350.1218,62.0367,298.077,0.0010601,0.00016635,0.0,0 STARLINK-3158,1 49432U 21104AA  23093.00096872  .00016635  00000-0  10601-2 0  9990,2 49432  53.2184 350.1218 0001430  62.0367 298.0770 15.08863931 76986,6917.807,95.436,540.661,538.683,0.0
49432.0,STARLINK-3158,PAYLOAD,2023-04-03 17:30:38,15.08851976,0.0001477,53.218,346.85,60.5897,299.5243,0.0004373,6.681e-05,0.0,0 STARLINK-3158,1 49432U 21104AA  23093.72960844  .00006681  00000-0  43730-3 0  9998,2 49432  53.2180 346.8500 0001477  60.5897 299.5243 15.08851976 78170,6917.844,95.437,540.731,538.687,0.0
49432.0,STARLINK-3158,PAYLOAD,2023-04-03 20:41:24,15.08850482,0.0001237,53.2179,346.2545,73.8618,286.2511,0.00031579,4.743e-05,0.0,0 STARLINK-3158,1 49432U 21104AA  23093.86208718  .00004743  00000-0  31579-3 0  9993,2 49432  53.2179 346.2545 0001237  73.8618 286.2511 15.08850482 77118,6917.848,95.437,540.569,538.858,0.0
49432.0,STARLINK-3158,PAYLOAD,2023-04-04 03:02:56,15.0886087,0.000121,53.2178,345.0654,74.2045,285.9081,0.00083953,0.00013106,0.0,0 STARLINK-3158,1 49432U 21104AA  23094.12704428  .00013106  00000-0  83953-3 0  9998,2 49432  53.2178 345.0654 0001210  74.2045 285.9081 15.08860870 77159,6917.817,95.436,540.519,538.845,0.0
49432.0,STARLINK-3158,PAYLOAD,2023-04-04 22:07:34,15.08841661,0.0001098,53.2165,341.4918,68.9466,291.1643,0.0005381,8.287e-05,0.0,0 STARLINK-3158,1 49432U 21104AA  23094.92192713  .00008287  00000-0  53810-3 0  9997,2 49432  53.2165 341.4918 0001098  68.9466 291.1643 15.08841661 77272,6917.875,95.437,540.5,538.981,0.0
49432.0,STARLINK-3158,PAYLOAD,2023-04-05 02:53:43,15.08853432,0.0001227,53.2172,340.6044,70.2174,289.895,0.00073193,0.00011384,0.0,0 STARLINK-3158,1 49432U 21104AA  23095.12064474  .00011384  00000-0  73193-3 0  9990,2 49432  53.2172 340.6044 0001227  70.2174 289.8950 15.08853432 78384,6917.839,95.437,540.553,538.856,0.0
49432.0,STARLINK-3158,PAYLOAD,2023-04-05 20:22:58,15.08839214,0.0001034,53.2165,337.3339,100.5375,259.5733,0.00063848,9.888e-05,0.0,0 STARLINK-3158,1 49432U 21104AA  23095.84928736  .00009888  00000-0  63848-3 0  9991,2 49432  53.2165 337.3339 0001034 100.5375 259.5733 15.08839214 77410,6917.883,95.438,540.463,539.032,0.0
49432.0,STARLINK-3158,PAYLOAD,2023-04-05 21:58:21,15.08843584,0.0001035,53.2165,337.0366,88.2514,271.8597,0.00091733,0.00014343,0.0,0 STARLINK-3158,1 49432U 21104AA  23095.91552804  .00014343  00000-0  91733-3 0  9994,2 49432  53.2165 337.0366 0001035  88.2514 271.8597 15.08843584 78506,6917.869,95.437,540.45,539.018,0.0
49432.0,STARLINK-3158,PAYLOAD,2023-04-05 23:33:44,15.08847972,0.0001144,53.2165,336.7393,95.4377,264.6746,0.0011572,0.00018181,0.0,0 STARLINK-3158,1 49432U 21104AA  23095.98176769  .00018181  00000-0  11572-2 0  9999,2 49432  53.2165 336.7393 0001144  95.4377 264.6746 15.08847972 77432,6917.856,95.437,540.512,538.93,0.0
49432.0,STARLINK-3158,PAYLOAD,2023-04-06 21:49:09,15.0884086,0.0001896,53.2153,332.5791,63.3251,296.7935,0.00029404,4.395e-05,0.0,0 STARLINK-3158,1 49432U 21104AA  23096.90913419  .00004395  00000-0  29404-3 0  9999,2 49432  53.2153 332.5791 0001896  63.3251 296.7935 15.08840860 78654,6917.878,95.438,541.054,538.431,0.0
49432.0,STARLINK-3158,PAYLOAD,2023-04-06 23:24:32,15.0883587,0.0001489,53.2157,332.2804,71.4465,288.6689,0.00014972,2.095e-05,0.0,0 STARLINK-3158,1 49432U 21104AA  23096.97537463  .00002095  00000-0  14972-3 0  9996,2 49432  53.2157 332.2804 0001489  71.4465 288.6689 15.08835870 77587,6917.893,95.438,540.788,538.728,0.0
49432.0,STARLINK-3158,PAYLOAD,2023-04-08 00:50:42,15.08850227,0.0001205,53.2161,327.5211,81.6915,278.4214,0.00042684,6.514e-05,0.0,0 STARLINK-3158,1 49432U 21104AA  23098.03521024  .00006514  00000-0  42684-3 0  9992,2 49432  53.2161 327.5211 0001205  81.6915 278.4214 15.08850227 78822,6917.849,95.437,540.548,538.881,0.0
49432.0,STARLINK-3158,PAYLOAD,2023-04-08 21:30:43,15.08845235,0.0001103,53.2162,323.6527,97.3241,262.7877,0.00018618,2.677e-05,0.0,0 STARLINK-3158,1 49432U 21104AA  23098.89633170  .00002677  00000-0  18618-3 0  9998,2 49432  53.2162 323.6527 0001103  97.3241 262.7877 15.08845235 78951,6917.864,95.437,540.492,538.966,0.0
49432.0,STARLINK-3158,PAYLOAD,2023-04-09 00:41:29,15.08847788,0.0001177,53.2159,323.0601,85.109,275.0037,0.00024707,3.647e-05,0.0,0 STARLINK-3158,1 49432U 21104AA  23099.02881129  .00003647  00000-0  24707-3 0  9997,2 49432  53.2159 323.0601 0001177  85.1090 275.0037 15.08847788 77894,6917.857,95.437,540.536,538.907,0.0
49432.0,STARLINK-3158,PAYLOAD,2023-04-09 21:21:30,15.08842217,0.0001152,53.2158,319.1943,80.4365,279.6757,0.00019284,2.783e-05,0.0,0 STARLINK-3158,1 49432U 21104AA  23099.88993406  .00002783  00000-0  19284-3 0  9997,2 49432  53.2158 319.1943 0001152  80.4365 279.6757 15.08842217 79101,6917.874,95.437,540.536,538.942,0.0
49432.0,STARLINK-3158,PAYLOAD,2023-04-10 00:32:16,15.0884391,0.0001145,53.216,318.5992,80.6024,279.5098,0.00026553,3.941e-05,0.0,0 STARLINK-3158,1 49432U 21104AA  23100.02241393  .00003941  00000-0  26553-3 0  9991,2 49432  53.2160 318.5992 0001145  80.6024 279.5098 15.08843910 78047,6917.868,95.437,540.526,538.941,0.0
